#aV2012  3 24  0  0  0.00000000     288 DD+AD WGS84 FIT  NGA
## 1680 518400.00000000   300.00000000 56010 0.0000000000000
+   31     1  2  3  4  5  6  7  8  9 10 11 12 13 14 15 16 17
+         18 19 20 21 22 23 25 26 27 28 29 30 31 32  0  0  0
+          0  0  0  0  0  0  0  0  0  0  0  0  0  0  0  0  0
+          0  0  0  0  0  0  0  0  0  0  0  0  0  0  0  0  0
+          0  0  0  0  0  0  0  0  0  0  0  0  0  0  0  0  0
++         2  2  2  2  2  2  2  2  2  2  2  2  2  2  2  2  2
++         2  2  2  2  2  2  2  2  2  2  2  2  2  2  2  0  0
++         0  0  0  0  0  0  0  0  0  0  0  0  0  0  0  0  0
++         0  0  0  0  0  0  0  0  0  0  0  0  0  0  0  0  0
++         0  0  0  0  0  0  0  0  0  0  0  0  0  0  0  0  0
%c cc cc ccc ccc cccc cccc cccc cccc ccccc ccccc ccccc ccccc
%c cc cc ccc ccc cccc cccc cccc cccc ccccc ccccc ccccc ccccc
%f  0.0000000  0.000000000  0.00000000000  0.000000000000000
%f  0.0000000  0.000000000  0.00000000000  0.000000000000000
%i    0    0    0    0      0      0      0      0         0
%i    0    0    0    0      0      0      0      0         0
/*      NGA, ST. LOUIS,MO.                                  
/*   EPHEMERIS COMPUTED FROM  1 DAYS OF DATA
/*   EPOCHA SMOOTHER  
/* CCCCCCCCCCCCCCCCCCCCCCCCCCCCCCCCCCCCCCCCCCCCCCCCCCCCCCCCC
*  2012  3 24 19 15  0.00000000                                                 
P  1 -16914.352939  -2937.321730  20260.978965    238.223944                    
V  1  -9764.686595 -23844.783020 -11580.066465      0.062999                    
P  2  13610.648513  22844.263879  -3505.190824    384.068996                    
V  2   -806.390655   5393.918503  30527.190908      0.014681                    
P  3 -18111.770139 -11533.871722 -16269.586489     26.826055                    
V  3  19717.617002  -2818.740981 -20258.629781      0.051300                    
P  4   5961.120532  24807.748388   6503.312663    132.743976                    
V  4  -6921.128419  -6398.660652  29954.787482      0.114456                    
P  5   9443.425569  12834.038968 -21257.809226   -297.400983                    
V  5 -16240.468088  21563.588399   5933.187766     -0.042284                    
P  6 -14168.923535 -13699.619736 -17802.793677     31.866760                    
V  6  22897.662523   -850.068994 -17153.418769     -0.002454                    
P  7 -10697.808467  11574.673644 -21315.607391     66.991302                    
V  7 -11412.643579 -24607.406819  -7866.576363      0.030498                    
P  8  -2876.122182  21452.736664 -14920.606252      0.898093                    
V  8  -7689.496392 -17692.730396 -24405.857228     -0.000335                    
P  9  17007.409303   7747.144373  18310.211072    146.870969                    
V  9   9103.723453  22622.870366 -17535.472948      0.024459                    
P 10  -6451.596900  22800.475998 -11835.444324    -33.271475                    
V 10 -11272.299772  10073.403542  26494.122871     -0.011472                    
P 11 -21152.007023  -7713.123473  13949.270451   -244.795057                    
V 11  -9028.459777 -16490.945022 -21887.579725     -0.036768                    
P 12  18392.827399  -3413.844136  18778.845703     59.674210                    
V 12 -13353.855930  19815.748790  16869.025908      0.021199                    
P 13 -20450.045795   6684.813147 -15778.023699    217.560415                    
V 13 -19075.295977  -5025.207145  22718.748860     -0.022584                    
P 14   1957.521847 -14773.108298  22160.125960    198.085905                    
V 14  27284.105352   4553.639611    495.958804      0.011636                    
P 15  26442.322844   3192.879903  -1527.184506    -91.772317                    
V 15  -2158.638236   2940.544498 -31203.556665      0.002595                    
P 16  -8164.236956 -13062.946798 -21579.463930   -228.691735                    
V 16  17376.323093 -21229.442596   6579.053043     -0.014899                    
P 17  -4724.130455  14673.054732  21784.883504    140.486868                    
V 17 -26967.333812  -4048.600565  -3379.654571     -0.024822                    
P 18  17083.453559 -19843.691753  -2705.588189    187.713098                    
V 18    991.303308   5574.156445 -31042.258949      0.018167                    
P 19 -25369.930059  -7617.449405  -3903.949704   -248.756386                    
V 19   5236.879136  -1526.032998 -30972.720232     -0.037621                    
P 20 -19495.683214   8206.459872  15861.146696     63.296109                    
V 20   9094.324515 -18613.780101  20665.782523     -0.000776                    
P 21   8285.771023 -15942.342552 -18898.070090   -212.784653                    
V 21  12119.955278  22300.350797 -13758.262821     -0.024874                    
P 22   7324.986610 -23239.668334  10599.777722    143.157764                    
V 22  10647.102196  -8683.797773 -26960.254208     -0.000672                    
P 23 -26103.930798   1062.796327  -5741.316551    221.246248                    
V 23  -6930.867404  -3236.553559  30400.987752     -0.035311                    
P 25  19008.338121 -16085.178992   9136.663262     32.459981                    
V 25  -4726.820669  10913.670044  29019.112918      0.002810                    
P 26  18996.991938  13100.601104 -14102.957656   -203.725630                    
V 26 -16611.431161  -1901.789089 -24891.795570     -0.555874                    
P 27  17943.553839  13953.945247  14746.100512    370.201447                    
V 27   6768.818185  16091.071562 -24057.192346      0.040143                    
P 28 -10161.340360  22812.996856   9255.500929    126.043068                    
V 28  -8512.267201   7311.728326 -29328.152100      0.040388                    
P 29  22046.592670  -6195.943914 -13346.574106    296.845318                    
V 29  16581.286591   4648.649312  25142.371010      0.036120                    
P 30  -1728.182271 -20717.637674 -16879.048264    -98.379719                    
V 30  11877.822888 -17129.100072  20243.985432     -0.173782                    
P 31  -6072.543612 -24960.310085   6415.066013    223.290165                    
V 31   5198.698821   6392.877403  30964.206987      0.044024                    
P 32 -17258.175336  -1977.069671  20180.573268   -424.385707                    
V 32  15501.379120 -20048.265465  11881.087683     -0.047149                    
EOF
